0 BREEZE-M DEB (TANK)
1 28870U 05036C   13285.43842747  .00001665  00000-0  35496-3 0  6925
2 28870 049.3992 119.3686 5508916 272.9796 027.7069 04.78346132174239
0 BREEZE-M DEB (TANK)
1 28870U 05036C   13287.53860361  .00002029  00000-0  43532-3 0  6936
2 28870 049.3994 117.9195 5509041 274.2208 044.3278 04.78354027174333
0 BREEZE-M DEB (TANK)
1 28870U 05036C   13290.45578144  .00002384  00000-0  50263-3 0  6940
2 28870 049.3990 115.9048 5509169 275.9469 028.0012 04.78370190174471
0 BREEZE-M DEB (TANK)
1 28870U 05036C   13292.55048051  .00002374  00000-0  49594-3 0  6957
2 28870 049.3992 114.4580 5509262 277.1861 035.3767 04.78379243174579
0 BREEZE-M DEB (TANK)
1 28870U 05036C   13294.65375023  .00002472  00000-0  51728-3 0  6964
2 28870 049.4005 113.0056 5509377 278.4289 057.5786 04.78388383174676
